GLOBALSTAR M069         
1 31573U 07020C   26197.11612456 -.00000117  00000+0 -22377-3 0  9993
2 31573  52.0009 170.2453 0001638 212.5494 228.2517 12.23472233882345
GLOBALSTAR M072         
1 31574U 07020D   26197.01483993 -.00000072  00000+0  17034-3 0  9998
2 31574  51.9949  23.4983 0001655  37.1365 132.9551 11.91658844878411
GLOBALSTAR M066         
1 32265U 07048C   26196.66044347 -.00000052  00000+0  36375-3 0  9999
2 32265  51.9609 336.1749 0005594 102.7371 269.9817 12.30389489863733
GLOBALSTAR M079         
1 37188U 10054A   26196.89887795 -.00000104  00000+0 -28003-5 0  9996
2 37188  52.0055  21.2674 0001129  78.9268  67.7048 12.62266431726179
GLOBALSTAR M074         
1 37189U 10054B   26196.92915833 -.00000103  00000+0  68052-5 0  9992
2 37189  52.0032  20.4362 0000869  93.4873  70.7747 12.62262033726785
GLOBALSTAR M076         
1 37190U 10054C   26196.76380812 -.00000096  00000+0  46166-4 0  9991
2 37190  52.0044  21.1451 0001095  93.6543 278.7739 12.62262357726482
GLOBALSTAR M077         
1 37191U 10054D   26197.16575053 -.00000102  00000+0 -43765-3 0  9990
2 37191  51.9960 105.7432 0002251 226.9989 281.7118 11.67547416724520
GLOBALSTAR M075         
1 37192U 10054E   26197.12820792 -.00000090  00000+0  78030-4 0  9999
2 37192  51.9955  62.0736 0000767  65.7269 103.9288 12.62267845725599
GLOBALSTAR M073         
1 37193U 10054F   26196.81062972 -.00000104  00000+0 -30190-5 0  9996
2 37193  52.0081 337.1636 0001063  96.8782  67.2732 12.62266879727541
GLOBALSTAR M083         
1 37739U 11033A   26197.18657409 -.00000070  00000+0  18664-3 0  9997
2 37739  51.9864 284.2096 0000753 107.6420 266.9612 12.62264227696614
GLOBALSTAR M088         
1 37740U 11033B   26197.00627553 -.00000117  00000+0 -73694-4 0  9995
2 37740  52.0189 191.2543 0000048  93.5904 300.0216 12.62269488692136
GLOBALSTAR M091         
1 37741U 11033C   26197.10953208 -.00000119  00000+0 -85046-4 0  9992
2 37741  51.9982 153.8624 0000442  25.6476  57.9985 12.62264246692934
GLOBALSTAR M085         
1 37742U 11033D   26197.19112476 -.00000091  00000+0  70669-4 0  9999
2 37742  52.0125 104.9316 0000798  42.5641 112.0435 12.62264349693452
GLOBALSTAR M081         
1 37743U 11033E   26197.21965052 -.00000100  00000+0  23299-4 0  9997
2 37743  51.9954 107.2477 0000689  55.7416 108.4065 12.62265278693607
GLOBALSTAR M089         
1 37744U 11033F   26197.01748538 -.00000090  00000+0  76028-4 0  9990
2 37744  51.9936  62.0166 0000701  90.3918  55.7492 12.62267580694425
GLOBALSTAR M084         
1 38040U 11080A   26196.46204899 -.00000085  00000+0  10404-3 0  9996
2 38040  52.0021 291.2057 0000824 129.9842 310.7473 12.62263504672339
GLOBALSTAR M080         
1 38041U 11080B   26197.21047933 -.00000079  00000+0  13593-3 0  9990
2 38041  52.0068 290.6556 0000286  81.2355 291.9152 12.62257460672551
GLOBALSTAR M082         
1 38042U 11080C   26197.15154896 -.00000077  00000+0  15136-3 0  9994
2 38042  52.0061 246.3389 0000189  83.9753 311.2190 12.62264282673256
GLOBALSTAR M092         
1 38043U 11080D   26196.83693785 -.00000088  00000+0  88256-4 0  9990
2 38043  52.0105 337.6936 0000779 103.6458  60.5815 12.62267811671667
GLOBALSTAR M090         
1 38044U 11080E   26196.31700969 -.00000053  00000+0  28459-3 0  9997
2 38044  52.0106 242.8440 0000427  91.1185 348.7415 12.62269578673261
GLOBALSTAR M086         
1 38045U 11080F   26197.11643382 -.00000091  00000+0  70587-4 0  9994
2 38045  51.9877 240.2921 0001497 113.1498 264.9646 12.62287791673319
GLOBALSTAR M097         
1 39072U 13005A   26197.06506689 -.00000127  00000+0 -12859-3 0  9994
2 39072  52.0027 155.4280 0000460  40.9280 319.1621 12.62271364620552
GLOBALSTAR M093         
1 39073U 13005B   26197.03830436 -.00000118  00000+0 -78966-4 0  9994
2 39073  52.0089 148.8675 0000671  45.4999 314.5922 12.62266310620509
GLOBALSTAR M094         
1 39074U 13005C   26197.03816029 -.00000087  00000+0  91638-4 0  9992
2 39074  51.9970  62.9567 0001019  64.0389 296.0582 12.62264172622119
GLOBALSTAR M096         
1 39075U 13005D   26197.13087082 -.00000094  00000+0  53762-4 0  9997
2 39075  52.0071 111.4982 0000765  44.1269 315.9659 12.62265718621042
GLOBALSTAR M078         
1 39076U 13005E   26197.02481640 -.00000122  00000+0 -10022-3 0  9998
2 39076  51.9844 195.7917 0000850 340.4467  19.6366 12.62260136619655
GLOBALSTAR M095         
1 39077U 13005F   26196.73475766 -.00000119  00000+0 -85055-4 0  9993
2 39077  52.0054 194.3192 0000468  13.1932 346.8947 12.62264145619471
GLOBALSTAR M087         
1 52888U 22064A   26196.66868377 -.00000103  00000+0  43333-5 0  9995
2 52888  52.0013 335.7423 0000918  85.2007 274.8964 12.62269258194738
